NORAD_CAT_ID,OBJECT_NAME,OBJECT_TYPE,EPOCH,MEAN_MOTION,ECCENTRICITY,INCLINATION,RA_OF_ASC_NODE,ARG_OF_PERICENTER,MEAN_ANOMALY,BSTAR,MEAN_MOTION_DOT,MEAN_MOTION_DDOT,TLE_LINE0,TLE_LINE1,TLE_LINE2,SEMIMAJOR_AXIS,PERIOD,APOGEE,PERIGEE,DECAYED
53024.0,STARLINK-4289,PAYLOAD,2023-06-21 20:26:49,15.08833303,0.0001153,53.2132,216.6532,88.3567,271.7557,0.00022861,3.352e-05,0.0,0 STARLINK-4289,1 53024U 22076AQ  23172.85195771  .00003352  00000-0  22861-3 0  9994,2 53024  53.2132 216.6532 0001153  88.3567 271.7557 15.08833303 53729,6917.901,95.438,540.563,538.968,0.0
53024.0,STARLINK-4289,PAYLOAD,2023-06-23 02:39:08,15.08847052,0.0001095,53.2145,211.0028,85.573,274.5387,8.8069e-05,1.114e-05,0.0,0 STARLINK-4289,1 53024U 22076AQ  23174.11051010  .00001114  00000-0  88069-4 0  9999,2 53024  53.2145 211.0028 0001095  85.5730 274.5387 15.08847052 53917,6917.859,95.437,540.481,538.966,0.0
53024.0,STARLINK-4289,PAYLOAD,2023-06-24 02:29:55,15.08834843,0.0001072,53.2146,206.5424,83.0213,277.0901,8.5668e-05,1.076e-05,0.0,0 STARLINK-4289,1 53024U 22076AQ  23175.10411694  .00001076  00000-0  85668-4 0  9996,2 53024  53.2146 206.5424 0001072  83.0213 277.0901 15.08834843 54062,6917.896,95.438,540.503,539.02,0.0
53024.0,STARLINK-4289,PAYLOAD,2023-06-25 08:42:14,15.08844013,0.0001089,53.2147,200.8926,82.5868,277.5248,4.1274e-05,3.69e-06,0.0,0 STARLINK-4289,1 53024U 22076AQ  23176.36267337  .00000369  00000-0  41274-4 0  9997,2 53024  53.2147 200.8926 0001089  82.5868 277.5248 15.08844013 54255,6917.868,95.437,540.486,538.98,0.0
53024.0,STARLINK-4289,PAYLOAD,2023-06-26 02:11:30,15.08833695,0.0001036,53.2142,197.6211,80.8985,279.2124,5.8829e-05,6.48e-06,0.0,0 STARLINK-4289,1 53024U 22076AQ  23177.09131967  .00000648  00000-0  58829-4 0  9991,2 53024  53.2142 197.6211 0001036  80.8985 279.2124 15.08833695 54361,6917.9,95.438,540.481,539.048,0.0
53024.0,STARLINK-4289,PAYLOAD,2023-06-27 08:23:49,15.08836183,0.0001078,53.2146,191.9716,82.4335,277.678,6.2807e-06,-1.88e-06,0.0,0 STARLINK-4289,1 53024U 22076AQ  23178.34988307 -.00000188  00000-0  62807-5 0  9990,2 53024  53.2146 191.9716 0001078  82.4335 277.6780 15.08836183 54551,6917.892,95.438,540.503,539.011,0.0
53024.0,STARLINK-4289,PAYLOAD,2023-06-28 09:49:59,15.08840295,0.0001082,53.2149,187.2134,83.8861,276.2254,6.1643e-05,6.93e-06,0.0,0 STARLINK-4289,1 53024U 22076AQ  23179.40972003  .00000693  00000-0  61643-4 0  9990,2 53024  53.2149 187.2134 0001082  83.8861 276.2254 15.08840295 54718,6917.879,95.438,540.493,538.996,0.0
53024.0,STARLINK-4289,PAYLOAD,2023-06-30 23:50:02,15.08835187,0.0001181,53.215,175.6156,86.9806,273.1321,-2.446e-05,-6.77e-06,0.0,0 STARLINK-4289,1 53024U 22076AQ  23181.99308433 -.00000677  00000-0 -24460-4 0  9997,2 53024  53.2150 175.6156 0001181  86.9806 273.1321 15.08835187 55107,6917.895,95.438,540.577,538.943,0.0
53024.0,STARLINK-4289,PAYLOAD,2023-07-02 01:16:12,15.08840474,0.0001467,53.2169,170.8584,62.0579,298.0562,3.6373e-05,2.91e-06,0.0,0 STARLINK-4289,1 53024U 22076AQ  23183.05292154  .00000291  00000-0  36373-4 0  9994,2 53024  53.2169 170.8584 0001467  62.0579 298.0562 15.08840474 55263,6917.879,95.438,540.759,538.729,0.0
53024.0,STARLINK-4289,PAYLOAD,2023-07-02 06:02:20,15.08861002,0.000106,53.2154,169.9667,87.8971,272.2143,0.00019543,2.826e-05,0.0,0 STARLINK-4289,1 53024U 22076AQ  23183.25162169  .00002826  00000-0  19543-3 0  9993,2 53024  53.2154 169.9667 0001060  87.8971 272.2143 15.08861002 55290,6917.816,95.436,540.414,538.948,0.0
53024.0,STARLINK-4289,PAYLOAD,2023-07-02 15:34:39,15.08846228,0.0001237,53.2158,168.1802,84.8353,275.278,8.8868e-05,1.127e-05,0.0,0 STARLINK-4289,1 53024U 22076AQ  23183.64907135  .00001127  00000-0  88868-4 0  9996,2 53024  53.2158 168.1802 0001237  84.8353 275.2780 15.08846228 55353,6917.861,95.437,540.582,538.871,0.0
53024.0,STARLINK-4289,PAYLOAD,2023-07-02 21:56:12,15.0883912,0.0001241,53.2157,166.9959,90.2161,269.8973,7.6771e-05,9.34e-06,0.0,0 STARLINK-4289,1 53024U 22076AQ  23183.91403618  .00000934  00000-0  76771-4 0  9998,2 53024  53.2157 166.9959 0001241  90.2161 269.8973 15.08839120 55394,6917.883,95.438,540.607,538.89,0.0
53024.0,STARLINK-4289,PAYLOAD,2023-07-03 09:03:55,15.08833027,0.000118,53.2159,164.912,96.0029,264.1098,1.1425e-05,-1.06e-06,0.0,0 STARLINK-4289,1 53024U 22076AQ  23184.37772318 -.00000106  00000-0  11425-4 0  9992,2 53024  53.2159 164.9120 0001180  96.0029 264.1098 15.08833027 55467,6917.902,95.438,540.583,538.95,0.0
53024.0,STARLINK-4289,PAYLOAD,2023-07-04 15:16:14,15.08843869,0.0001156,53.2157,159.2612,119.8846,240.2261,-0.00014906,-2.66e-05,0.0,0 STARLINK-4289,1 53024U 22076AQ  23185.63628468 -.00002660  00000-0 -14906-3 0  9992,2 53024  53.2157 159.2612 0001156 119.8846 240.2261 15.08843869 55655,6917.869,95.437,540.533,538.934,0.0
53024.0,STARLINK-4289,PAYLOAD,2023-07-06 07:00:53,15.08835326,0.0001099,53.2157,151.826,92.7618,267.3499,8.1654e-05,1.012e-05,0.0,0 STARLINK-4289,1 53024U 22076AQ  23187.29229099  .00001012  00000-0  81654-4 0  9996,2 53024  53.2157 151.8260 0001099  92.7618 267.3499 15.08835326 55904,6917.895,95.438,540.52,538.999,0.0
53024.0,STARLINK-4289,PAYLOAD,2023-07-07 17:59:22,15.08841713,0.0001169,53.2156,145.2841,91.3188,268.7938,6.9217e-05,8.14e-06,0.0,0 STARLINK-4289,1 53024U 22076AQ  23188.74956882  .00000814  00000-0  69217-4 0  9994,2 53024  53.2156 145.2841 0001169  91.3188 268.7938 15.08841713 56125,6917.875,95.437,540.549,538.931,0.0
53024.0,STARLINK-4289,PAYLOAD,2023-07-08 06:42:27,15.08848281,0.0001196,53.2156,142.9049,92.4408,267.6721,9.923e-05,1.292e-05,0.0,0 STARLINK-4289,1 53024U 22076AQ  23189.27948244  .00001292  00000-0  99230-4 0  9995,2 53024  53.2156 142.9049 0001196  92.4408 267.6721 15.08848281 56200,6917.855,95.437,540.547,538.893,0.0
53024.0,STARLINK-4289,PAYLOAD,2023-07-09 03:22:29,15.08834888,0.000109,53.2157,139.0394,95.328,264.7837,3.7353e-06,-2.28e-06,0.0,0 STARLINK-4289,1 53024U 22076AQ  23190.14061516 -.00000228  00000-0  37353-5 0  9999,2 53024  53.2157 139.0394 0001090  95.3280 264.7837 15.08834888 56332,6917.896,95.438,540.515,539.007,0.0
53024.0,STARLINK-4289,PAYLOAD,2023-07-10 04:48:38,15.08843708,0.0001126,53.2162,134.2823,100.5054,259.6065,2.864e-05,1.68e-06,0.0,0 STARLINK-4289,1 53024U 22076AQ  23191.20044962  .00000168  00000-0  28640-4 0  9993,2 53024  53.2162 134.2823 0001126 100.5054 259.6065 15.08843708 56494,6917.869,95.437,540.513,538.955,0.0
53024.0,STARLINK-4289,PAYLOAD,2023-07-11 03:04:03,15.08831953,0.0001033,53.2166,130.1194,97.8679,262.2431,2.8187e-05,1.61e-06,0.0,0 STARLINK-4289,1 53024U 22076AQ  23192.12781931  .00000161  00000-0  28187-4 0  9998,2 53024  53.2166 130.1194 0001033  97.8679 262.2431 15.08831953 56634,6917.905,95.438,540.485,539.055,0.0
53024.0,STARLINK-4289,PAYLOAD,2023-07-12 04:30:13,15.0884349,0.0001085,53.2173,125.3633,103.3283,256.783,5.109e-05,5.25e-06,0.0,0 STARLINK-4289,1 53024U 22076AQ  23193.18765313  .00000525  00000-0  51090-4 0  9994,2 53024  53.2173 125.3633 0001085 103.3283 256.7830 15.08843490 56794,6917.87,95.437,540.485,538.984,0.0
53024.0,STARLINK-4289,PAYLOAD,2023-07-13 02:45:37,15.08837895,0.0001268,53.2179,121.1995,83.8096,276.3041,2.3718e-05,9e-07,0.0,0 STARLINK-4289,1 53024U 22076AQ  23194.11502059  .00000090  00000-0  23718-4 0  9997,2 53024  53.2179 121.1995 0001268  83.8096 276.3041 15.08837895 56932,6917.887,95.438,540.629,538.875,0.0
53024.0,STARLINK-4289,PAYLOAD,2023-07-14 04:11:47,15.08844481,0.0001104,53.2167,116.44,89.3841,270.7278,3.8276e-05,3.21e-06,0.0,0 STARLINK-4289,1 53024U 22076AQ  23195.17485673  .00000321  00000-0  38276-4 0  9998,2 53024  53.2167 116.4400 0001104  89.3841 270.7278 15.08844481 57092,6917.867,95.437,540.495,538.968,0.0
53024.0,STARLINK-4289,PAYLOAD,2023-07-15 00:51:48,15.08826594,0.0001027,53.2164,112.5742,96.6631,263.4478,0.00036119,5.463e-05,0.0,0 STARLINK-4289,1 53024U 22076AQ  23196.03597951  .00005463  00000-0  36119-3 0  9992,2 53024  53.2164 112.5742 0001027  96.6631 263.4478 15.08826594 57228,6917.921,95.438,540.497,539.076,0.0
53024.0,STARLINK-4289,PAYLOAD,2023-07-15 04:02:33,15.0885193,0.0001126,53.2162,111.9791,108.776,251.3354,7.5859e-05,9.2e-06,0.0,0 STARLINK-4289,1 53024U 22076AQ  23196.16844873  .00000920  00000-0  75859-4 0  9992,2 53024  53.2162 111.9791 0001126 108.7760 251.3354 15.08851930 57244,6917.844,95.437,540.488,538.93,0.0
53024.0,STARLINK-4289,PAYLOAD,2023-07-15 18:21:03,15.08840671,0.0001154,53.2169,109.3025,93.1468,266.9656,2.019e-05,3.4e-07,0.0,0 STARLINK-4289,1 53024U 22076AQ  23196.76461923  .00000034  00000-0  20190-4 0  9993,2 53024  53.2169 109.3025 0001154  93.1468 266.9656 15.08840671 57332,6917.878,95.438,540.542,538.945,0.0
53024.0,STARLINK-4289,PAYLOAD,2023-07-17 00:33:22,15.08848985,0.0001212,53.2172,103.6525,86.5738,273.5393,-7.12e-05,-1.421e-05,0.0,0 STARLINK-4289,1 53024U 22076AQ  23198.02317822 -.00001421  00000-0 -71200-4 0  9993,2 53024  53.2172 103.6525 0001212  86.5738 273.5393 15.08848985 57528,6917.853,95.437,540.556,538.879,0.0
53024.0,STARLINK-4289,PAYLOAD,2023-07-18 01:59:32,15.08846211,0.0001266,53.2178,98.8954,83.5657,276.5479,0.00013202,1.814e-05,0.0,0 STARLINK-4289,1 53024U 22076AQ  23199.08301391  .00001814  00000-0  13202-3 0  9995,2 53024  53.2178  98.8954 0001266  83.5657 276.5479 15.08846211 57686,6917.861,95.437,540.602,538.851,0.0
53024.0,STARLINK-4289,PAYLOAD,2023-07-19 01:50:20,15.08838607,0.0002169,53.2176,94.4351,72.8989,287.224,1.542e-05,-4.3e-07,0.0,0 STARLINK-4289,1 53024U 22076AQ  23200.07662745 -.00000043  00000-0  15420-4 0  9999,2 53024  53.2176  94.4351 0002169  72.8989 287.2240 15.08838607 57831,6917.885,95.438,541.25,538.249,0.0
53024.0,STARLINK-4289,PAYLOAD,2023-07-20 17:34:58,15.08832762,8.83e-05,53.2164,87.0012,102.6449,257.4642,0.00012374,1.682e-05,0.0,0 STARLINK-4289,1 53024U 22076AQ  23201.73262696  .00001682  00000-0  12374-3 0  9997,2 53024  53.2164  87.0012 0000883 102.6449 257.4642 15.08832762 58083,6917.903,95.438,540.378,539.157,0.0
